start=new Date('2022-11-19T00:00:00.000Z').valueOf();
sats=[{"BSTAR":"0.00014353000000","RCS_SIZE":"LARGE","MEAN_MOTION_DOT":"0.00001857","EPHEMERIS_TYPE":"0","FILE":"3662515","PERIOD":"95.592","CLASSIFICATION_TYPE":"U","ELEMENT_SET_NO":"999","APOAPSIS":"548.123","SITE":"AFETR","OBJECT_ID":"2021-017BA","PERIAPSIS":"546.295","MEAN_ANOMALY":"345.0779","REF_FRAME":"TEME","TIME_SYSTEM":"UTC","INCLINATION":"53.0545","TLE_LINE2":"2 47770  53.0545 227.6478 0001320  15.0249 345.0779 15.06401598 95819","ARG_OF_PERICENTER":"15.0249","MEAN_MOTION":"15.06401598","DECAY_DATE":null,"GP_ID":"218134270","OBJECT_TYPE":"PAYLOAD","EPOCH":"2022-11-18T02:35:56.700960","MEAN_MOTION_DDOT":"0.0000000000000","MEAN_ELEMENT_THEORY":"SGP4","TLE_LINE1":"1 47770U 21017BA  22322.10829515  .00001857  00000-0  14353-3 0  9998","COUNTRY_CODE":"US","LAUNCH_DATE":"2021-03-04","SEMIMAJOR_AXIS":"6925.344","ECCENTRICITY":"0.00013200","NORAD_CAT_ID":"47770","OBJECT_NAME":"STARLINK-2193","CENTER_NAME":"EARTH","REV_AT_EPOCH":"9581","RA_OF_ASC_NODE":"227.6478"},{"INCLINATION":"53.0538","TIME_SYSTEM":"UTC","TLE_LINE2":"2 47771  53.0538 226.1321 0001885  47.8865 312.2284 15.06397744 95876","ARG_OF_PERICENTER":"47.8865","OBJECT_ID":"2021-017BB","MEAN_ANOMALY":"312.2284","PERIAPSIS":"545.915","REF_FRAME":"TEME","FILE":"3662515","CLASSIFICATION_TYPE":"U","ELEMENT_SET_NO":"999","PERIOD":"95.592","APOAPSIS":"548.526","SITE":"AFETR","BSTAR":"0.00011583000000","RCS_SIZE":"LARGE","EPHEMERIS_TYPE":"0","MEAN_MOTION_DOT":"0.00001444","SEMIMAJOR_AXIS":"6925.355","NORAD_CAT_ID":"47771","ECCENTRICITY":"0.00018850","OBJECT_NAME":"STARLINK-2194","CENTER_NAME":"EARTH","REV_AT_EPOCH":"9587","RA_OF_ASC_NODE":"226.1321","MEAN_ELEMENT_THEORY":"SGP4","COUNTRY_CODE":"US","TLE_LINE1":"1 47771U 21017BB  22322.45109751  .00001444  00000-0  11583-3 0  9994","LAUNCH_DATE":"2021-03-04","MEAN_MOTION_DDOT":"0.0000000000000","MEAN_MOTION":"15.06397744","DECAY_DATE":null,"EPOCH":"2022-11-18T10:49:34.824864","GP_ID":"218134520","OBJECT_TYPE":"PAYLOAD"},{"MEAN_MOTION_DDOT":"0.0000000000000","EPOCH":"2022-11-18T12:09:51.515136","GP_ID":"218135272","OBJECT_TYPE":"PAYLOAD","MEAN_MOTION":"15.06410134","DECAY_DATE":null,"CENTER_NAME":"EARTH","RA_OF_ASC_NODE":"240.8830","REV_AT_EPOCH":"9564","OBJECT_NAME":"STARLINK-2195","SEMIMAJOR_AXIS":"6925.317","NORAD_CAT_ID":"47772","ECCENTRICITY":"0.00017620","LAUNCH_DATE":"2021-03-04","MEAN_ELEMENT_THEORY":"SGP4","COUNTRY_CODE":"US","TLE_LINE1":"1 47772U 21017BC  22322.50684624  .00006046  00000-0  42432-3 0  9998","APOAPSIS":"548.403","SITE":"AFETR","FILE":"3662515","CLASSIFICATION_TYPE":"U","ELEMENT_SET_NO":"999","PERIOD":"95.591","EPHEMERIS_TYPE":"0","MEAN_MOTION_DOT":"0.00006046","BSTAR":"0.00042432000000","RCS_SIZE":"LARGE","ARG_OF_PERICENTER":"66.9064","INCLINATION":"53.0541","TIME_SYSTEM":"UTC","TLE_LINE2":"2 47772  53.0541 240.8830 0001762  66.9064 293.2111 15.06410134 95647","MEAN_ANOMALY":"293.2111","PERIAPSIS":"545.962","REF_FRAME":"TEME","OBJECT_ID":"2021-017BC"},{"MEAN_MOTION_DDOT":"0.0000000000000","OBJECT_TYPE":"PAYLOAD","GP_ID":"218136023","EPOCH":"2022-11-18T12:04:33.024000","DECAY_DATE":null,"MEAN_MOTION":"15.06402931","RA_OF_ASC_NODE":"240.8952","REV_AT_EPOCH":"9563","CENTER_NAME":"EARTH","NORAD_CAT_ID":"47773","SEMIMAJOR_AXIS":"6925.340","ECCENTRICITY":"0.00018480","OBJECT_NAME":"STARLINK-2196","LAUNCH_DATE":"2021-03-04","TLE_LINE1":"1 47773U 21017BD  22322.50316000  .00002111  00000-0  16058-3 0  9993","COUNTRY_CODE":"US","MEAN_ELEMENT_THEORY":"SGP4","SITE":"AFETR","APOAPSIS":"548.484","PERIOD":"95.592","CLASSIFICATION_TYPE":"U","ELEMENT_SET_NO":"999","FILE":"3662515","EPHEMERIS_TYPE":"0","MEAN_MOTION_DOT":"0.00002111","RCS_SIZE":"LARGE","BSTAR":"0.00016058000000","ARG_OF_PERICENTER":"52.8537","TLE_LINE2":"2 47773  53.0556 240.8952 0001848  52.8537 307.2621 15.06402931 95630","TIME_SYSTEM":"UTC","INCLINATION":"53.0556","REF_FRAME":"TEME","PERIAPSIS":"545.925","MEAN_ANOMALY":"307.2621","OBJECT_ID":"2021-017BD"},{"CENTER_NAME":"EARTH","RA_OF_ASC_NODE":"240.9103","REV_AT_EPOCH":"9500","ECCENTRICITY":"0.00018550","SEMIMAJOR_AXIS":"6925.365","NORAD_CAT_ID":"47774","OBJECT_NAME":"STARLINK-2197","LAUNCH_DATE":"2021-03-04","MEAN_ELEMENT_THEORY":"SGP4","TLE_LINE1":"1 47774U 21017BE  22322.49947540  .00001156  00000-0  96498-4 0  9996","COUNTRY_CODE":"US","MEAN_MOTION_DDOT":"0.0000000000000","OBJECT_TYPE":"PAYLOAD","GP_ID":"218140293","EPOCH":"2022-11-18T11:59:14.674560","MEAN_MOTION":"15.06394489","DECAY_DATE":null,"ARG_OF_PERICENTER":"49.3845","TIME_SYSTEM":"UTC","INCLINATION":"53.0544","TLE_LINE2":"2 47774  53.0544 240.9103 0001855  49.3845 310.7305 15.06394489 95005","PERIAPSIS":"545.946","MEAN_ANOMALY":"310.7305","REF_FRAME":"TEME","OBJECT_ID":"2021-017BE","APOAPSIS":"548.515","SITE":"AFETR","FILE":"3662553","PERIOD":"95.592","ELEMENT_SET_NO":"999","CLASSIFICATION_TYPE":"U","EPHEMERIS_TYPE":"0","MEAN_MOTION_DOT":"0.00001156","RCS_SIZE":"LARGE","BSTAR":"0.00009649800000"},{"DECAY_DATE":null,"MEAN_MOTION":"15.06407593","GP_ID":"218135021","OBJECT_TYPE":"PAYLOAD","EPOCH":"2022-11-18T04:17:28.061664","MEAN_MOTION_DDOT":"0.0000000000000","TLE_LINE1":"1 47775U 21017BF  22322.17879701  .00005748  00000-0  40439-3 0  9999","COUNTRY_CODE":"US","MEAN_ELEMENT_THEORY":"SGP4","LAUNCH_DATE":"2021-03-04","NORAD_CAT_ID":"47775","SEMIMAJOR_AXIS":"6925.325","ECCENTRICITY":"0.00022560","OBJECT_NAME":"STARLINK-2198","RA_OF_ASC_NODE":"242.3478","REV_AT_EPOCH":"9564","CENTER_NAME":"EARTH","BSTAR":"0.00040439000000","RCS_SIZE":"LARGE","MEAN_MOTION_DOT":"0.00005748","EPHEMERIS_TYPE":"0","PERIOD":"95.592","CLASSIFICATION_TYPE":"U","ELEMENT_SET_NO":"999","FILE":"3662515","SITE":"AFETR","APOAPSIS":"548.753","OBJECT_ID":"2021-017BF","REF_FRAME":"TEME","PERIAPSIS":"545.628","MEAN_ANOMALY":"316.5356","TLE_LINE2":"2 47775  53.0543 242.3478 0002256  43.5811 316.5356 15.06407593 95642","TIME_SYSTEM":"UTC","INCLINATION":"53.0543","ARG_OF_PERICENTER":"43.5811"},{"REV_AT_EPOCH":"9579","RA_OF_ASC_NODE":"231.0424","CENTER_NAME":"EARTH","NORAD_CAT_ID":"47776","SEMIMAJOR_AXIS":"6925.350","OBJECT_NAME":"STARLINK-2209","ECCENTRICITY":"0.00018360","LAUNCH_DATE":"2021-03-04","TLE_LINE1":"1 47776U 21017BG  22322.47091162  .00001526  00000-0  12131-3 0  9998","COUNTRY_CODE":"US","MEAN_ELEMENT_THEORY":"SGP4","MEAN_MOTION_DDOT":"0.0000000000000","GP_ID":"218135773","OBJECT_TYPE":"PAYLOAD","EPOCH":"2022-11-18T11:18:06.763968","DECAY_DATE":null,"MEAN_MOTION":"15.06399688","ARG_OF_PERICENTER":"55.1756","TLE_LINE2":"2 47776  53.0535 231.0424 0001836  55.1756 304.9405 15.06399688 95797","TIME_SYSTEM":"UTC","INCLINATION":"53.0535","REF_FRAME":"TEME","PERIAPSIS":"545.943","MEAN_ANOMALY":"304.9405","OBJECT_ID":"2021-017BG","SITE":"AFETR","APOAPSIS":"548.486","PERIOD":"95.592","CLASSIFICATION_TYPE":"U","ELEMENT_SET_NO":"999","FILE":"3662515","MEAN_MOTION_DOT":"0.00001526","EPHEMERIS_TYPE":"0","RCS_SIZE":"LARGE","BSTAR":"0.00012131000000"},{"REF_FRAME":"TEME","MEAN_ANOMALY":"317.7563","PERIAPSIS":"545.708","OBJECT_ID":"2021-017BH","ARG_OF_PERICENTER":"42.3596","TLE_LINE2":"2 47777  53.0538 231.0264 0002205  42.3596 317.7563 15.06393079 95799","INCLINATION":"53.0538","TIME_SYSTEM":"UTC","EPHEMERIS_TYPE":"0","MEAN_MOTION_DOT":"0.00000984","RCS_SIZE":"LARGE","BSTAR":"0.00008497900000","SITE":"AFETR","APOAPSIS":"548.762","ELEMENT_SET_NO":"999","CLASSIFICATION_TYPE":"U","PERIOD":"95.593","FILE":"3662515","LAUNCH_DATE":"2021-03-04","COUNTRY_CODE":"US","TLE_LINE1":"1 47777U 21017BH  22322.47459901  .00000984  00000-0  84979-4 0  9995","MEAN_ELEMENT_THEORY":"SGP4","RA_OF_ASC_NODE":"231.0264","REV_AT_EPOCH":"9579","CENTER_NAME":"EARTH","SEMIMAJOR_AXIS":"6925.370","NORAD_CAT_ID":"47777","OBJECT_NAME":"STARLINK-2210","ECCENTRICITY":"0.00022050","EPOCH":"2022-11-18T11:23:25.354464","GP_ID":"218135523","OBJECT_TYPE":"PAYLOAD","DECAY_DATE":null,"MEAN_MOTION":"15.06393079","MEAN_MOTION_DDOT":"0.0000000000000"},{"MEAN_MOTION_DOT":"-0.00007007","EPHEMERIS_TYPE":"0","BSTAR":"-0.00045161000000","RCS_SIZE":"LARGE","APOAPSIS":"548.448","SITE":"AFETR","FILE":"3662515","CLASSIFICATION_TYPE":"U","ELEMENT_SET_NO":"999","PERIOD":"95.591","MEAN_ANOMALY":"300.3193","PERIAPSIS":"545.827","REF_FRAME":"TEME","OBJECT_ID":"2021-017BJ","ARG_OF_PERICENTER":"59.7983","INCLINATION":"53.0562","TIME_SYSTEM":"UTC","TLE_LINE2":"2 47778  53.0562 233.2497 0001892  59.7983 300.3193 15.06424741 95712","EPOCH":"2022-11-17T23:26:51.402048","GP_ID":"218134271","OBJECT_TYPE":"PAYLOAD","MEAN_MOTION":"15.06424741","DECAY_DATE":null,"MEAN_MOTION_DDOT":"0.0000000000000","LAUNCH_DATE":"2021-03-04","MEAN_ELEMENT_THEORY":"SGP4","COUNTRY_CODE":"US","TLE_LINE1":"1 47778U 21017BJ  22321.97698382 -.00007007  00000-0 -45161-3 0  9992","CENTER_NAME":"EARTH","RA_OF_ASC_NODE":"233.2497","REV_AT_EPOCH":"9571","ECCENTRICITY":"0.00018920","SEMIMAJOR_AXIS":"6925.273","NORAD_CAT_ID":"47778","OBJECT_NAME":"STARLINK-2211"},{"REF_FRAME":"TEME","PERIAPSIS":"521.542","MEAN_ANOMALY":"255.7177","OBJECT_ID":"2021-017BK","ARG_OF_PERICENTER":"104.4141","TLE_LINE2":"2 47779  53.0525 213.5651 0002937 104.4141 255.7177 15.14147890 96048","TIME_SYSTEM":"UTC","INCLINATION":"53.0525","MEAN_MOTION_DOT":"0.00019870","EPHEMERIS_TYPE":"0","RCS_SIZE":"LARGE","BSTAR":"0.00109070000000","SITE":"AFETR","APOAPSIS":"525.596","PERIOD":"95.103","ELEMENT_SET_NO":"999","CLASSIFICATION_TYPE":"U","FILE":"3662515","LAUNCH_DATE":"2021-03-04","TLE_LINE1":"1 47779U 21017BK  22322.43290618  .00019870  00000-0  10907-2 0  9993","COUNTRY_CODE":"US","MEAN_ELEMENT_THEORY":"SGP4","REV_AT_EPOCH":"9604","RA_OF_ASC_NODE":"213.5651","CENTER_NAME":"EARTH","SEMIMAJOR_AXIS":"6901.704","NORAD_CAT_ID":"47779","ECCENTRICITY":"0.00029370","OBJECT_NAME":"STARLINK-2212","OBJECT_TYPE":"PAYLOAD","GP_ID":"218134521","EPOCH":"2022-11-18T10:23:23.093952","DECAY_DATE":null,"MEAN_MOTION":"15.14147890","MEAN_MOTION_DDOT":"0.0000000000000"}];
